{
  "type": "FeatureCollection",
  "features": [
    {
      "type": "Feature",
      "properties": {
        "norad_id": 24876,
        "name": "GPS BIIR-2  (PRN 13)",
        "group": "gnss",
        "lat": -54.872829298455414,
        "lon": 0.40302193208810533,
        "alt_km": 20421.887231803954,
        "timestamp": "2025-12-05T14:45:15.542791+00:00",
        "meta_object_name": "GPS BIIR-2  (PRN 13)",
        "meta_object_id": "1997-035A",
        "meta_epoch": "2025-12-04T06:09:46.662048",
        "meta_mean_motion": 2.00563453,
        "meta_eccentricity": 0.0096693,
        "meta_inclination": 55.8911,
        "meta_ra_of_asc_node": 106.2007,
        "meta_arg_of_pericenter": 57.0188,
        "meta_mean_anomaly": 303.8705,
        "meta_ephemeris_type": 0,
        "meta_classification_type": "U",
        "meta_norad_cat_id": 24876,
        "meta_element_set_no": 999,
        "meta_rev_at_epoch": 20804,
        "meta_bstar": 0,
        "meta_mean_motion_dot": 8e-08,
        "meta_mean_motion_ddot": 0,
        "tle_line1": "1 24876U 97035A   25338.25679007  .00000008  00000+0  00000+0 0  9994",
        "tle_line2": "2 24876  55.8911 106.2007 0096693  57.0188 303.8705  2.00563453208044"
      },
      "geometry": {
        "type": "Point",
        "coordinates": [
          0.40302193208810533,
          -54.872829298455414
        ]
      }
    },
    {
      "type": "Feature",
      "properties": {
        "norad_id": 26360,
        "name": "GPS BIIR-4  (PRN 20)",
        "group": "gnss",
        "lat": -5.239446440313796,
        "lon": 23.470703366893407,
        "alt_km": 20221.941295249795,
        "timestamp": "2025-12-05T14:45:15.542828+00:00",
        "meta_object_name": "GPS BIIR-4  (PRN 20)",
        "meta_object_id": "2000-025A",
        "meta_epoch": "2025-12-03T20:43:35.059008",
        "meta_mean_motion": 2.0056828,
        "meta_eccentricity": 0.00387989,
        "meta_inclination": 55.0399,
        "meta_ra_of_asc_node": 27.1971,
        "meta_arg_of_pericenter": 241.132,
        "meta_mean_anomaly": 287.663,
        "meta_ephemeris_type": 0,
        "meta_classification_type": "U",
        "meta_norad_cat_id": 26360,
        "meta_element_set_no": 999,
        "meta_rev_at_epoch": 18735,
        "meta_bstar": 0,
        "meta_mean_motion_dot": -7.1e-07,
        "meta_mean_motion_ddot": 0,
        "tle_line1": "1 26360U 00025A   25337.86360022 -.00000071  00000+0  00000+0 0  9998",
        "tle_line2": "2 26360  55.0399  27.1971 0038798 241.1320 287.6630  2.00568280187352"
      },
      "geometry": {
        "type": "Point",
        "coordinates": [
          23.470703366893407,
          -5.239446440313796
        ]
      }
    },
    {
      "type": "Feature",
      "properties": {
        "norad_id": 26407,
        "name": "GPS BIIR-5  (PRN 22)",
        "group": "gnss",
        "lat": -9.328877400580472,
        "lon": 49.48923539245958,
        "alt_km": 20296.21529908915,
        "timestamp": "2025-12-05T14:45:15.542847+00:00",
        "meta_object_name": "GPS BIIR-5  (PRN 22)",
        "meta_object_id": "2000-040A",
        "meta_epoch": "2025-12-03T20:42:39.159072",
        "meta_mean_motion": 2.00567714,
        "meta_eccentricity": 0.0126499,
        "meta_inclination": 54.893,
        "meta_ra_of_asc_node": 222.9221,
        "meta_arg_of_pericenter": 301.6438,
        "meta_mean_anomaly": 66.2593,
        "meta_ephemeris_type": 0,
        "meta_classification_type": "U",
        "meta_norad_cat_id": 26407,
        "meta_element_set_no": 999,
        "meta_rev_at_epoch": 18603,
        "meta_bstar": 0,
        "meta_mean_motion_dot": 6e-07,
        "meta_mean_motion_ddot": 0,
        "tle_line1": "1 26407U 00040A   25337.86295323  .00000060  00000+0  00000+0 0  9995",
        "tle_line2": "2 26407  54.8930 222.9221 0126499 301.6438  66.2593  2.00567714186037"
      },
      "geometry": {
        "type": "Point",
        "coordinates": [
          49.48923539245958,
          -9.328877400580472
        ]
      }
    },
    {
      "type": "Feature",
      "properties": {
        "norad_id": 27663,
        "name": "GPS BIIR-8  (PRN 16)",
        "group": "gnss",
        "lat": -26.576920807813078,
        "lon": -157.88781892504767,
        "alt_km": 20143.756590547702,
        "timestamp": "2025-12-05T14:45:15.542867+00:00",
        "meta_object_name": "GPS BIIR-8  (PRN 16)",
        "meta_object_id": "2003-005A",
        "meta_epoch": "2025-12-03T11:06:59.696352",
        "meta_mean_motion": 2.00571298,
        "meta_eccentricity": 0.0147085,
        "meta_inclination": 54.9258,
        "meta_ra_of_asc_node": 222.7473,
        "meta_arg_of_pericenter": 51.6706,
        "meta_mean_anomaly": 163.3527,
        "meta_ephemeris_type": 0,
        "meta_classification_type": "U",
        "meta_norad_cat_id": 27663,
        "meta_element_set_no": 999,
        "meta_rev_at_epoch": 16738,
        "meta_bstar": 0,
        "meta_mean_motion_dot": 6.1e-07,
        "meta_mean_motion_ddot": 0,
        "tle_line1": "1 27663U 03005A   25337.46319093  .00000061  00000+0  00000+0 0  9992",
        "tle_line2": "2 27663  54.9258 222.7473 0147085  51.6706 163.3527  2.00571298167382"
      },
      "geometry": {
        "type": "Point",
        "coordinates": [
          -157.88781892504767,
          -26.576920807813078
        ]
      }
    },
    {
      "type": "Feature",
      "properties": {
        "norad_id": 28190,
        "name": "GPS BIIR-11 (PRN 19)",
        "group": "gnss",
        "lat": 40.94194604080261,
        "lon": 66.09447146456473,
        "alt_km": 19957.670517233502,
        "timestamp": "2025-12-05T14:45:15.542889+00:00",
        "meta_object_name": "GPS BIIR-11 (PRN 19)",
        "meta_object_id": "2004-009A",
        "meta_epoch": "2025-12-04T10:34:11.811072",
        "meta_mean_motion": 2.00560931,
        "meta_eccentricity": 0.0108199,
        "meta_inclination": 54.9938,
        "meta_ra_of_asc_node": 283.5535,
        "meta_arg_of_pericenter": 167.4954,
        "meta_mean_anomaly": 192.2151,
        "meta_ephemeris_type": 0,
        "meta_classification_type": "U",
        "meta_norad_cat_id": 28190,
        "meta_element_set_no": 999,
        "meta_rev_at_epoch": 15903,
        "meta_bstar": 0,
        "meta_mean_motion_dot": -4.2e-07,
        "meta_mean_motion_ddot": 0,
        "tle_line1": "1 28190U 04009A   25338.44041448 -.00000042  00000+0  00000+0 0  9998",
        "tle_line2": "2 28190  54.9938 283.5535 0108199 167.4954 192.2151  2.00560931159030"
      },
      "geometry": {
        "type": "Point",
        "coordinates": [
          66.09447146456473,
          40.94194604080261
        ]
      }
    },
    {
      "type": "Feature",
      "properties": {
        "norad_id": 28474,
        "name": "GPS BIIR-13 (PRN 02)",
        "group": "gnss",
        "lat": -4.873873018536746,
        "lon": 156.07849627360315,
        "alt_km": 20423.293751931316,
        "timestamp": "2025-12-05T14:45:15.542902+00:00",
        "meta_object_name": "GPS BIIR-13 (PRN 02)",
        "meta_object_id": "2004-045A",
        "meta_epoch": "2025-12-04T09:39:02.075040",
        "meta_mean_motion": 2.00568937,
        "meta_eccentricity": 0.0170587,
        "meta_inclination": 55.2447,
        "meta_ra_of_asc_node": 332.7413,
        "meta_arg_of_pericenter": 308.8874,
        "meta_mean_anomaly": 83.0394,
        "meta_ephemeris_type": 0,
        "meta_classification_type": "U",
        "meta_norad_cat_id": 28474,
        "meta_element_set_no": 999,
        "meta_rev_at_epoch": 15452,
        "meta_bstar": 0,
        "meta_mean_motion_dot": -7.2e-07,
        "meta_mean_motion_ddot": 0,
        "tle_line1": "1 28474U 04045A   25338.40210735 -.00000072  00000+0  00000+0 0  9999",
        "tle_line2": "2 28474  55.2447 332.7413 0170587 308.8874  83.0394  2.00568937154527"
      },
      "geometry": {
        "type": "Point",
        "coordinates": [
          156.07849627360315,
          -4.873873018536746
        ]
      }
    },
    {
      "type": "Feature",
      "properties": {
        "norad_id": 28874,
        "name": "GPS BIIRM-1 (PRN 17)",
        "group": "gnss",
        "lat": 27.83094321661086,
        "lon": 79.31952848448186,
        "alt_km": 20479.26103519202,
        "timestamp": "2025-12-05T14:45:15.542916+00:00",
        "meta_object_name": "GPS BIIRM-1 (PRN 17)",
        "meta_object_id": "2005-038A",
        "meta_epoch": "2025-12-02T16:12:27.400896",
        "meta_mean_motion": 2.00548806,
        "meta_eccentricity": 0.01328204,
        "meta_inclination": 55.0411,
        "meta_ra_of_asc_node": 281.1063,
        "meta_arg_of_pericenter": 293.4087,
        "meta_mean_anomaly": 250.3584,
        "meta_ephemeris_type": 0,
        "meta_classification_type": "U",
        "meta_norad_cat_id": 28874,
        "meta_element_set_no": 999,
        "meta_rev_at_epoch": 14789,
        "meta_bstar": 0,
        "meta_mean_motion_dot": -4.3e-07,
        "meta_mean_motion_ddot": 0,
        "tle_line1": "1 28874U 05038A   25336.67531714 -.00000043  00000+0  00000+0 0  9994",
        "tle_line2": "2 28874  55.0411 281.1063 0132820 293.4087 250.3584  2.00548806147896"
      },
      "geometry": {
        "type": "Point",
        "coordinates": [
          79.31952848448186,
          27.83094321661086
        ]
      }
    }
  ]
}